{"type": "FeatureCollection", "features": [ {"type": "Feature", "properties": {"norad_id": 37044, "name": "FENGYUN 1C DEB", "group": "fengyun-1c-debris", "lat": -23.93255391012112, "lon": 106.42555861443546, "alt_km": 1347.4462610007176, "timestamp": "2025-12-22T22:44:21.264639+00:00", "meta": {"OBJECT_NAME": "FENGYUN 1C DEB", "OBJECT_ID": "1999-025EEC", "EPOCH": "2025-12-17T00:58:56.109216", "MEAN_MOTION": 13.7088459, "ECCENTRICITY": 0.05081309, "INCLINATION": 98.9658, "RA_OF_ASC_NODE": 96.8685, "ARG_OF_PERICENTER": 149.9849, "MEAN_ANOMALY": 213.1489, "EPHEMERIS_TYPE": 0, "CLASSIFICATION_TYPE": "U", "NORAD_CAT_ID": 37044, "ELEMENT_SET_NO": 999, "REV_AT_EPOCH": 83917, "BSTAR": 0.0024723878, "MEAN_MOTION_DOT": 5.519e-05, "MEAN_MOTION_DDOT": 0}, "tle": {"line1": "1 37044U 99025EEC 25351.04092719  .00005519  00000+0  24724-2 0  9991", "line2": "2 37044  98.9658  96.8685 0508130 149.9849 213.1489 13.70884590839179"}}, "geometry": {"type": "Point", "coordinates": [106.42555861443546, -23.93255391012112]}}, {"type": "Feature", "properties": {"norad_id": 37046, "name": "FENGYUN 1C DEB", "group": "fengyun-1c-debris", "lat": -16.387433444635917, "lon": -171.60349366861882, "alt_km": 807.7200631708638, "timestamp": "2025-12-22T22:44:21.264649+00:00", "meta": {"OBJECT_NAME": "FENGYUN 1C DEB", "OBJECT_ID": "1999-025EEE", "EPOCH": "2025-12-22T06:38:49.300800", "MEAN_MOTION": 14.24871368, "ECCENTRICITY": 0.00487976, "INCLINATION": 98.5432, "RA_OF_ASC_NODE": 10.2776, "ARG_OF_PERICENTER": 278.8551, "MEAN_ANOMALY": 80.7105, "EPHEMERIS_TYPE": 0, "CLASSIFICATION_TYPE": "U", "NORAD_CAT_ID": 37046, "ELEMENT_SET_NO": 999, "REV_AT_EPOCH": 64317, "BSTAR": 0.00063447229, "MEAN_MOTION_DOT": 1.457e-05, "MEAN_MOTION_DDOT": 0}, "tle": {"line1": "1 37046U 99025EEE 25356.27695950  .00001457  00000+0  63447-3 0  9992", "line2": "2 37046  98.5432  10.2776 0048797 278.8551  80.7105 14.24871368643173"}}, "geometry": {"type": "Point", "coordinates": [-171.60349366861882, -16.387433444635917]}}, {"type": "Feature", "properties": {"norad_id": 37048, "name": "FENGYUN 1C DEB", "group": "fengyun-1c-debris", "lat": 7.7618913487792405, "lon": -143.807515268316, "alt_km": 1093.1197838027474, "timestamp": "2025-12-22T22:44:21.264659+00:00", "meta": {"OBJECT_NAME": "FENGYUN 1C DEB", "OBJECT_ID": "1999-025EEG", "EPOCH": "2025-12-20T11:28:01.182144", "MEAN_MOTION": 13.65138161, "ECCENTRICITY": 0.02535701, "INCLINATION": 98.8864, "RA_OF_ASC_NODE": 215.1499, "ARG_OF_PERICENTER": 129.0844, "MEAN_ANOMALY": 350.7839, "EPHEMERIS_TYPE": 0, "CLASSIFICATION_TYPE": "U", "NORAD_CAT_ID": 37048, "ELEMENT_SET_NO": 999, "REV_AT_EPOCH": 62275, "BSTAR": 0.00018884192, "MEAN_MOTION_DOT": 1.54e-06, "MEAN_MOTION_DDOT": 0}, "tle": {"line1": "1 37048U 99025EEG 25354.47779146  .00000154  00000+0  18884-3 0  9992", "line2": "2 37048  98.8864 215.1499 0253570 129.0844 350.7839 13.65138161622750"}}, "geometry": {"type": "Point", "coordinates": [-143.807515268316, 7.7618913487792405]}}, {"type": "Feature", "properties": {"norad_id": 37054, "name": "FENGYUN 1C DEB", "group": "fengyun-1c-debris", "lat": -37.10214959644808, "lon": 152.52252893738833, "alt_km": 890.3471963952115, "timestamp": "2025-12-22T22:44:21.264669+00:00", "meta": {"OBJECT_NAME": "FENGYUN 1C DEB", "OBJECT_ID": "1999-025EEN", "EPOCH": "2025-12-18T04:22:47.839296", "MEAN_MOTION": 14.19457855, "ECCENTRICITY": 0.01012295, "INCLINATION": 98.5505, "RA_OF_ASC_NODE": 334.4558, "ARG_OF_PERICENTER": 89.7023, "MEAN_ANOMALY": 271.5753, "EPHEMERIS_TYPE": 0, "CLASSIFICATION_TYPE": "U", "NORAD_CAT_ID": 37054, "ELEMENT_SET_NO": 999, "REV_AT_EPOCH": 64506, "BSTAR": 0.00022919283, "MEAN_MOTION_DOT": 4.67e-06, "MEAN_MOTION_DDOT": 0}, "tle": {"line1": "1 37054U 99025EEN 25352.18249814  .00000467  00000+0  22919-3 0  9990", "line2": "2 37054  98.5505 334.4558 0101229  89.7023 271.5753 14.19457855645069"}}, "geometry": {"type": "Point", "coordinates": [152.52252893738833, -37.10214959644808]}}, {"type": "Feature", "properties": {"norad_id": 37056, "name": "FENGYUN 1C DEB", "group": "fengyun-1c-debris", "lat": 74.63222356269416, "lon": -124.94626003795138, "alt_km": 530.4102440559063, "timestamp": "2025-12-22T22:44:21.264679+00:00", "meta": {"OBJECT_NAME": "FENGYUN 1C DEB", "OBJECT_ID": "1999-025EEQ", "EPOCH": "2025-12-17T08:10:24.720960", "MEAN_MOTION": 14.50465139, "ECCENTRICITY": 0.02688582, "INCLINATION": 98.9815, "RA_OF_ASC_NODE": 13.9371, "ARG_OF_PERICENTER": 132.0541, "MEAN_ANOMALY": 230.387, "EPHEMERIS_TYPE": 0, "CLASSIFICATION_TYPE": "U", "NORAD_CAT_ID": 37056, "ELEMENT_SET_NO": 999, "REV_AT_EPOCH": 65478, "BSTAR": 0.0002042958, "MEAN_MOTION_DOT": 1.21e-05, "MEAN_MOTION_DDOT": 0}, "tle": {"line1": "1 37056U 99025EEQ 25351.34056390  .00001210  00000+0  20430-3 0  9997", "line2": "2 37056  98.9815  13.9371 0268858 132.0541 230.3870 14.50465139654781"}}, "geometry": {"type": "Point", "coordinates": [-124.94626003795138, 74.63222356269416]}}, {"type": "Feature", "properties": {"norad_id": 37057, "name": "FENGYUN 1C DEB", "group": "fengyun-1c-debris", "lat": 20.30056490924991, "lon": 8.119533214062487, "alt_km": 903.8198081302589, "timestamp": "2025-12-22T22:44:21.264689+00:00", "meta": {"OBJECT_NAME": "FENGYUN 1C DEB", "OBJECT_ID": "1999-025EER", "EPOCH": "2025-12-19T18:57:33.353568", "MEAN_MOTION": 13.96116671, "ECCENTRICITY": 0.02853199, "INCLINATION": 98.9208, "RA_OF_ASC_NODE": 8.387, "ARG_OF_PERICENTER": 120.0686, "MEAN_ANOMALY": 242.91, "EPHEMERIS_TYPE": 0, "CLASSIFICATION_TYPE": "U", "NORAD_CAT_ID": 37057, "ELEMENT_SET_NO": 999, "REV_AT_EPOCH": 63696, "BSTAR": 7.2468399e-05, "MEAN_MOTION_DOT": 9.9e-07, "MEAN_MOTION_DDOT": 0}, "tle": {"line1": "1 37057U 99025EER 25353.78996937  .00000099  00000+0  72468-4 0  9991", "line2": "2 37057  98.9208   8.3870 0285319 120.0686 242.9100 13.96116671636966"}}, "geometry": {"type": "Point", "coordinates": [8.119533214062487, 20.30056490924991]}}, {"type": "Feature", "properties": {"norad_id": 37061, "name": "FENGYUN 1C DEB", "group": "fengyun-1c-debris", "lat": -19.902902301615033, "lon": -123.95708809953786, "alt_km": 1660.6355350515323, "timestamp": "2025-12-22T22:44:21.264699+00:00", "meta": {"OBJECT_NAME": "FENGYUN 1C DEB", "OBJECT_ID": "1999-025EEV", "EPOCH": "2025-12-22T10:42:39.888864", "MEAN_MOTION": 13.13604705, "ECCENTRICITY": 0.08010232, "INCLINATION": 98.0832, "RA_OF_ASC_NODE": 58.6052, "ARG_OF_PERICENTER": 341.5304, "MEAN_ANOMALY": 15.8205, "EPHEMERIS_TYPE": 0, "CLASSIFICATION_TYPE": "U", "NORAD_CAT_ID": 37061, "ELEMENT_SET_NO": 999, "REV_AT_EPOCH": 8283, "BSTAR": 0.002300659, "MEAN_MOTION_DOT": 4.442e-05, "MEAN_MOTION_DDOT": 0}, "tle": {"line1": "1 37061U 99025EEV 25356.44629501  .00004442  00000+0  23007-2 0  9991", "line2": "2 37061  98.0832  58.6052 0801023 341.5304  15.8205 13.13604705 82831"}}, "geometry": {"type": "Point", "coordinates": [-123.95708809953786, -19.902902301615033]}}, {"type": "Feature", "properties": {"norad_id": 37064, "name": "FENGYUN 1C DEB", "group": "fengyun-1c-debris", "lat": -79.516948589878, "lon": -152.94278951679198, "alt_km": 916.6928040278435, "timestamp": "2025-12-22T22:44:21.264709+00:00", "meta": {"OBJECT_NAME": "FENGYUN 1C DEB", "OBJECT_ID": "1999-025EEY", "EPOCH": "2025-11-25T16:29:09.460320", "MEAN_MOTION": 14.15612933, "ECCENTRICITY": 0.01070067, "INCLINATION": 98.9095, "RA_OF_ASC_NODE": 121.83, "ARG_OF_PERICENTER": 150.7609, "MEAN_ANOMALY": 209.9612, "EPHEMERIS_TYPE": 0, "CLASSIFICATION_TYPE": "U", "NORAD_CAT_ID": 37064, "ELEMENT_SET_NO": 999, "REV_AT_EPOCH": 81294, "BSTAR": 0.0049331234, "MEAN_MOTION_DOT": 0.00010179, "MEAN_MOTION_DDOT": 0}, "tle": {"line1": "1 37064U 99025EEY 25329.68691505  .00010179  00000+0  49331-2 0  9995", "line2": "2 37064  98.9095 121.8300 0107006 150.7609 209.9612 14.15612933812947"}}, "geometry": {"type": "Point", "coordinates": [-152.94278951679198, -79.516948589878]}}, {"type": "Feature", "properties": {"norad_id": 37065, "name": "FENGYUN 1C DEB", "group": "fengyun-1c-debris", "lat": -55.530467735648294, "lon": -24.806421358785727, "alt_km": 833.4155666535917, "timestamp": "2025-12-22T22:44:21.264720+00:00", "meta": {"OBJECT_NAME": "FENGYUN 1C DEB", "OBJECT_ID": "1999-025EEZ", "EPOCH": "2025-12-13T18:30:23.335488", "MEAN_MOTION": 13.59126537, "ECCENTRICITY": 0.02987556, "INCLINATION": 103.2861, "RA_OF_ASC_NODE": 162.9273, "ARG_OF_PERICENTER": 240.3853, "MEAN_ANOMALY": 116.7203, "EPHEMERIS_TYPE": 0, "CLASSIFICATION_TYPE": "U", "NORAD_CAT_ID": 37065, "ELEMENT_SET_NO": 999, "REV_AT_EPOCH": 22216, "BSTAR": 0.0032978969, "MEAN_MOTION_DOT": 3.181e-05, "MEAN_MOTION_DDOT": 0}, "tle": {"line1": "1 37065U 99025EEZ 25347.77110342  .00003181  00000+0  32979-2 0  9996", "line2": "2 37065 103.2861 162.9273 0298755 240.3853 116.7203 13.59126537222160"}}, "geometry": {"type": "Point", "coordinates": [-24.806421358785727, -55.530467735648294]}}, {"type": "Feature", "properties": {"norad_id": 37067, "name": "FENGYUN 1C DEB", "group": "fengyun-1c-debris", "lat": 68.65058688183886, "lon": 144.4187133859921, "alt_km": 782.3566960637954, "timestamp": "2025-12-22T22:44:21.264730+00:00", "meta": {"OBJECT_NAME": "FENGYUN 1C DEB", "OBJECT_ID": "1999-025EFB", "EPOCH": "2025-12-21T01:38:57.261120", "MEAN_MOTION": 14.00389884, "ECCENTRICITY": 0.01565844, "INCLINATION": 99.5385, "RA_OF_ASC_NODE": 296.9816, "ARG_OF_PERICENTER": 89.0148, "MEAN_ANOMALY": 272.8951, "EPHEMERIS_TYPE": 0, "CLASSIFICATION_TYPE": "U", "NORAD_CAT_ID": 37067, "ELEMENT_SET_NO": 999, "REV_AT_EPOCH": 57525, "BSTAR": 0.0026651528, "MEAN_MOTION_DOT": 4.346e-05, "MEAN_MOTION_DDOT": 0}, "tle": {"line1": "1 37067U 99025EFB 25355.06871830  .00004346  00000+0  26652-2 0  9990", "line2": "2 37067  99.5385 296.9816 0156584  89.0148 272.8951 14.00389884575257"}}, "geometry": {"type": "Point", "coordinates": [144.4187133859921, 68.65058688183886]}}]}